CYGFM02                 
1 41886U 16078C   24296.90542079  .00019675  00000+0  60260-3 0  9992
2 41886  34.9454 194.8237 0014653 292.9355  66.9815 15.32800565435839
CYGFM01                 
1 41887U 16078D   24296.80672816  .00017122  00000+0  55376-3 0  9992
2 41887  34.9471 214.8505 0013202 270.6051  89.3152 15.31107375435555
CYGFM08                 
1 41888U 16078E   24296.80788101  .00017636  00000+0  55099-3 0  9990
2 41888  34.9474 201.8024 0014808 290.6385  69.2744 15.32183933435746
CYGFM07                 
1 41890U 16078G   24296.88654398  .00019419  00000+0  59937-3 0  9997
2 41890  34.9501 192.3447 0012584 306.3241  53.6314 15.32586981435759
CYGFM03                 
1 41891U 16078H   24296.79988689  .00017384  00000+0  53947-3 0  9995
2 41891  34.9451 194.1985 0011174 292.2186  67.7345 15.32447027435720
FENGYUN 3D              
1 43010U 17072A   24297.53046278  .00000295  00000+0  16157-3 0  9992
2 43010  98.9282 253.0357 0001495  12.7179 347.4034 14.19467273359623
NOAA 20 (JPSS-1)        
1 43013U 17073A   24297.55272966  .00000259  00000+0  14368-3 0  9995
2 43013  98.7163 233.3614 0001267 147.6727 212.4527 14.19543810359117
GOES 17                 
1 43226U 18022A   24297.51526213 -.00000099  00000+0  00000+0 0  9996
2 43226   0.0114 116.1035 0003109 120.0405 237.0926  1.00271159 24402
FENGYUN 2H              
1 43491U 18050A   24296.87085029 -.00000134  00000+0  00000+0 0  9994
2 43491   1.4720  86.0211 0001933 140.9206 197.4616  1.00267452 23391
METOP-C                 
1 43689U 18087A   24297.46012144  .00000321  00000+0  16664-3 0  9991
2 43689  98.7085 355.1417 0002538  88.4344 271.7124 14.21482720309348
GEO-KOMPSAT-2A          
1 43823U 18100A   24296.21854993 -.00000351  00000+0  00000+0 0  9992
2 43823   0.0551  57.8353 0001048  91.0181  89.2527  1.00271772 21617
METEOR-M2 2             
1 44387U 19038A   24297.52839495  .00000357  00000+0  17529-3 0  9997
2 44387  98.8452 267.3670 0001008  12.5445 347.5759 14.24028355275654
ARKTIKA-M 1             
1 47719U 21016A   24297.35973384  .00000052  00000+0  00000+0 0  9999
2 47719  63.1341 136.8631 6989173 268.5095  17.6232  2.00611543 26724
FENGYUN 3E              
1 49008U 21062A   24297.53827009  .00000085  00000+0  60863-4 0  9999
2 49008  98.7388 297.1352 0002288  49.4329 310.7046 14.19802275171207
GOES 18                 
1 51850U 22021A   24294.64055205  .00000092  00000+0  00000+0 0  9993
2 51850   0.0538  59.2831 0000836 213.9206 210.0133  1.00273385   532
NOAA 21 (JPSS-2)        
1 54234U 22150A   24296.88475409  .00000282  00000+0  15451-3 0  9996
2 54234  98.7617 233.3217 0002021 103.9853 256.1547 14.19544214101099
METEOSAT-12 (MTG-I1)    
1 54743U 22170C   24296.70094146 -.00000012  00000+0  00000+0 0  9991
2 54743   0.6196  44.9543 0001506 129.0035 109.8142  1.00275092  6937
TIANMU-1 03             
1 55973U 23039A   24297.52631538  .00017741  00000+0  67644-3 0  9992
2 55973  97.4815  87.7950 0005483  91.4457 268.7409 15.26736564 88402
TIANMU-1 04             
1 55974U 23039B   24297.50082306  .00018906  00000+0  71748-3 0  9998
2 55974  97.4742  87.2194 0006454  87.8213 272.3764 15.26873068 88399
TIANMU-1 05             
1 55975U 23039C   24297.49357210  .00018358  00000+0  69999-3 0  9992
2 55975  97.4788  87.6006 0005176 106.7462 253.4345 15.26729875 88383
TIANMU-1 06             
1 55976U 23039D   24297.52536325  .00018033  00000+0  68260-3 0  9993
2 55976  97.4802  87.8135 0005655 105.2903 254.8961 15.26973459 88391
METEOR-M2 3             
1 57166U 23091A   24297.49609928  .00000058  00000+0  44297-4 0  9993
2 57166  98.6974 350.9247 0005017 112.9478 247.2230 14.23940314 68886
TIANMU-1 07             
1 57399U 23101A   24297.47286620  .00011514  00000+0  53765-3 0  9999
2 57399  97.3470 351.1374 0006309  99.9924 260.2023 15.19958800 69892
TIANMU-1 08             
1 57400U 23101B   24297.50750130  .00012678  00000+0  59076-3 0  9991
2 57400  97.3459 351.0270 0008472 104.0131 256.2047 15.19994344 69891
TIANMU-1 09             
1 57401U 23101C   24297.48962173  .00012098  00000+0  56518-3 0  9995
2 57401  97.3416 350.7785 0008299 101.7050 258.5117 15.19916618 69894
TIANMU-1 10             
1 57402U 23101D   24297.52309004  .00011815  00000+0  55164-3 0  9991
2 57402  97.3493 351.2183 0010427 100.5476 259.6934 15.19926243 69897
FENGYUN 3F              
1 57490U 23111A   24297.48479243  .00000214  00000+0  12168-3 0  9995
2 57490  98.7569   5.3576 0001905  89.5967 270.5428 14.19913811 63472
ARKTIKA-M 2             
1 58584U 23198A   24296.09687391  .00000075  00000+0  00000+0 0  9999
2 58584  63.2422 220.8576 6932729 269.6209  17.6841  2.00605961  6218
TIANMU-1 11             
1 58645U 23205A   24297.54880411  .00010410  00000+0  52006-3 0  9996
2 58645  97.3956 319.4737 0009802 326.9640  33.0980 15.17612873 45960
TIANMU-1 12             
1 58646U 23205B   24297.56393183  .00010018  00000+0  50206-3 0  9998
2 58646  97.3940 319.3961 0007559 320.8516  39.2170 15.17529890 45958
TIANMU-1 13             
1 58647U 23205C   24297.53123764  .00010133  00000+0  50756-3 0  9990
2 58647  97.3974 319.4066 0007489 297.3174  62.7297 15.17543823 45945
TIANMU-1 14             
1 58648U 23205D   24297.51509785  .00009633  00000+0  48266-3 0  9996
2 58648  97.3898 319.1305 0008136 301.4267  58.6170 15.17544797 45949
TIANMU-1 19             
1 58660U 23208A   24297.51453130  .00014083  00000+0  69687-3 0  9990
2 58660  97.4184  46.9748 0005491 275.9600  84.1008 15.17900013 45610
TIANMU-1 20             
1 58661U 23208B   24297.56764381  .00013837  00000+0  66055-3 0  9991
2 58661  97.4117  47.0708 0008184 289.2623  70.7726 15.19140345 45647
TIANMU-1 21             
1 58662U 23208C   24297.47509733  .00015306  00000+0  70557-3 0  9995
2 58662  97.4154  47.4991 0007975 288.6223  71.4146 15.20327843 45650
TIANMU-1 22             
1 58663U 23208D   24297.52162960  .00013767  00000+0  67547-3 0  9993
2 58663  97.4174  47.0588 0003889 306.4957  53.5918 15.18209443 45621
TIANMU-1 15             
1 58700U 24004A   24296.52113231  .00010240  00000+0  51214-3 0  9993
2 58700  97.4631 115.5196 0008638 332.4600  27.6175 15.17590561 44065
TIANMU-1 16             
1 58701U 24004B   24296.50076891  .00009306  00000+0  46524-3 0  9991
2 58701  97.4562 115.2661 0008712 338.9124  21.1750 15.17629960 44062
TIANMU-1 17             
1 58702U 24004C   24297.47726236  .00009499  00000+0  47605-3 0  9998
2 58702  97.4602 116.4229 0006748 327.4939  32.5878 15.17550503 44204
TIANMU-1 18             
1 58703U 24004D   24297.52623761  .00011331  00000+0  56727-3 0  9997
2 58703  97.4618 116.5704 0006357 317.7059  42.3684 15.17542819 44218
INSAT-3DS               
1 58990U 24033A   24296.75810759 -.00000164  00000+0  00000+0 0  9998
2 58990   0.0581  79.4047 0001773 144.6227 162.6841  1.00271561 41020
METEOR-M2 4             
1 59051U 24039A   24297.52482297  .00000121  00000+0  73882-4 0  9996
2 59051  98.6160 256.3598 0008114 108.9195 251.2863 14.22286616 33738
GOES 19                 
1 60133U 24119A   24296.39725684 -.00000190  00000+0  00000+0 0  9996
2 60133   0.0402  62.2253 0000132  70.9880 311.6501  1.00271630   916
2024-173A               
1 61227U 24173A   24297.54151716  .00037435  00000+0  14347-2 0  9991
2 61227  97.4045  10.0489 0011813 166.3961 193.7598 15.26355464  4475
2024-173B               
1 61228U 24173B   24297.53474835  .00041522  00000+0  15645-2 0  9995
2 61228  97.4011  10.0459 0012653 171.6759 188.4692 15.26885553  4476
2024-173C               
1 61229U 24173C   24297.47410419  .00034144  00000+0  13090-2 0  9991
2 61229  97.4020   9.9772 0012332 171.2848 188.8607 15.26359431  4461
2024-173D               
1 61230U 24173D   24297.53656164  .00035217  00000+0  13371-2 0  9993
2 61230  97.4028  10.0490 0012207 174.0132 186.1255 15.26675636  4478
2024-173E               
1 61231U 24173E   24297.29375181 -.00000004  00000+0  27607-5 0  9991
2 61231  97.3958   9.7373 0012137 168.2128 191.9396 15.24129661  4376
2024-173F               
1 61232U 24173F   24297.53542918  .00035451  00000+0  13454-2 0  9998
2 61232  97.4034  10.0523 0012581 173.6378 186.5022 15.26684424  4433
2024-173G               
1 61233U 24173G   24297.52695338  .00045904  00000+0  16970-2 0  9993
2 61233  97.4016  10.0575 0012466 177.1138 183.0175 15.27492904  4438
2024-173H               
1 61234U 24173H   24297.52319046  .00052730  00000+0  19251-2 0  9993
2 61234  97.4030  10.0679 0012529 178.1752 181.9535 15.27868388  4433
2024-173K               
1 61236U 24173K   24297.50010127  .00047303  00000+0  16751-2 0  9993
2 61236  97.4380  10.2474 0020642 195.6029 164.4577 15.28769205  4491
2024-173L               
1 61237U 24173L   24297.38624438  .00041522  00000+0  98365-3 0  9995
2 61237  97.6750  11.5573 0085103 210.2890 149.3421 15.37868715  4533
2024-174A               
1 61238U 24174A   24297.52657839  .00008558  00000+0  43516-3 0  9994
2 61238  97.4565 302.3401 0015215 181.9181 178.1996 15.16992068  4332
2024-174B               
1 61239U 24174B   24297.52695245  .00011937  00000+0  60403-3 0  9997
2 61239  97.4555 302.3364 0015764 178.5889 181.5392 15.17062765  4326
2024-174C               
1 61240U 24174C   24297.53588109  .00011586  00000+0  59567-3 0  9999
2 61240  97.4510 302.3074 0015276 173.4155 186.7281 15.16517078  4296
2024-174D               
1 61241U 24174D   24297.53039910  .00011773  00000+0  59905-3 0  9995
2 61241  97.4530 302.3225 0015469 175.8909 184.2454 15.16873943  4295
2024-174E               
1 61242U 24174E   24297.53046114  .00010413  00000+0  53119-3 0  9991
2 61242  97.4576 302.3381 0016422 176.9030 183.2308 15.16806656  4289
